{
    "links": {
        "self": "http://www.neowsapp.com/rest/v1/neo/3694990?api_key=iIulBulltgU6a56xZRHN4H3l9WmuAYTsLGpBGhQ2"
    },
    "id": "3694990",
    "neo_reference_id": "3694990",
    "name": "(2014 UZ116)",
    "designation": "2014 UZ116",
    "nasa_jpl_url": "http://ssd.jpl.nasa.gov/sbdb.cgi?sstr=3694990",
    "absolute_magnitude_h": 20.9,
    "estimated_diameter": {
        "kilometers": {
            "estimated_diameter_min": 0.1756123185,
            "estimated_diameter_max": 0.3926810818
        },
        "meters": {
            "estimated_diameter_min": 175.6123184804,
            "estimated_diameter_max": 392.6810818086
        },
        "miles": {
            "estimated_diameter_min": 0.1091204019,
            "estimated_diameter_max": 0.2440006365
        },
        "feet": {
            "estimated_diameter_min": 576.1559189633,
            "estimated_diameter_max": 1288.3238004408
        }
    },
    "is_potentially_hazardous_asteroid": false,
    "close_approach_data": [
        {
            "close_approach_date": "1989-09-01",
            "close_approach_date_full": "1989-Sep-01 07:51",
            "epoch_date_close_approach": 620639460000,
            "relative_velocity": {
                "kilometers_per_second": "4.1507762745",
                "kilometers_per_hour": "14942.7945883005",
                "miles_per_hour": "9284.8714484915"
            },
            "miss_distance": {
                "astronomical": "0.2150118964",
                "lunar": "83.6396276996",
                "kilometers": "32165321.726100668",
                "miles": "19986604.1294504984"
            },
            "orbiting_body": "Earth"
        },
        {
            "close_approach_date": "2014-09-03",
            "close_approach_date_full": "2014-Sep-03 07:12",
            "epoch_date_close_approach": 1409728320000,
            "relative_velocity": {
                "kilometers_per_second": "3.7717267582",
                "kilometers_per_hour": "13578.2163296984",
                "miles_per_hour": "8436.9755855284"
            },
            "miss_distance": {
                "astronomical": "0.2016085271",
                "lunar": "78.4257170419",
                "kilometers": "30160206.227997277",
                "miles": "18740683.1330533426"
            },
            "orbiting_body": "Earth"
        },
        {
            "close_approach_date": "2039-09-06",
            "close_approach_date_full": "2039-Sep-06 23:33",
            "epoch_date_close_approach": 2198964780000,
            "relative_velocity": {
                "kilometers_per_second": "4.6192954144",
                "kilometers_per_hour": "16629.463491983",
                "miles_per_hour": "10332.9019125602"
            },
            "miss_distance": {
                "astronomical": "0.2444976857",
                "lunar": "95.1095997373",
                "kilometers": "36576333.000649459",
                "miles": "22727479.4393781742"
            },
            "orbiting_body": "Earth"
        }
    ],
    "orbital_data": {
        "orbit_id": "13",
        "orbit_determination_date": "2017-04-06 08:37:45",
        "first_observation_date": "2014-10-24",
        "last_observation_date": "2014-11-23",
        "data_arc_in_days": 30,
        "observations_used": 64,
        "orbit_uncertainty": "6",
        "minimum_orbit_intersection": ".202299",
        "jupiter_tisserand_invariant": "3.568",
        "epoch_osculation": "2459000.5",
        "eccentricity": ".4546402162337216",
        "semi_major_axis": "2.13784698366936",
        "inclination": "6.697499714439635",
        "ascending_node_longitude": "79.68728681260131",
        "orbital_period": "1141.729842888826",
        "perihelion_distance": "1.165895768739313",
        "perihelion_argument": "265.6040998389407",
        "aphelion_distance": "3.109798198599408",
        "perihelion_time": "2459194.233295469706",
        "mean_anomaly": "298.9137572224382",
        "mean_motion": ".3153110188388536",
        "equinox": "J2000",
        "orbit_class": {
            "orbit_class_type": "AMO",
            "orbit_class_description": "Near-Earth asteroid orbits similar to that of 1221 Amor",
            "orbit_class_range": "1.017 AU < q (perihelion) < 1.3 AU"
        }
    },
    "is_sentry_object": false
}